{"type":"Feature","properties":{"name":"France, DROM, Saint-Pierre-et-Miquelon, Saint-Martin, Saint-Barth\u00e9lemy"},"geometry":{"type":"MultiPolygon","coordinates":[[[[55.081,-21.088],[55.203,-20.788],[55.389,-20.714],[55.747,-20.78],[55.992,-21.089],[55.939,-21.422],[55.828,-21.495],[55.588,-21.52],[55.268,-21.397],[55.081,-21.088]]],[[[44.92,-12.946],[44.898,-12.659],[45.016,-12.517],[45.141,-12.506],[45.415,-12.673],[45.424,-12.855],[45.241,-13.119],[45.029,-13.116],[44.92,-12.946]]],[[[8.438,41.945],[8.421,42.459],[8.613,42.694],[9.163,42.885],[9.269,43.132],[9.452,43.164],[9.58,43.086],[9.634,42.837],[9.608,42.705],[9.681,42.564],[9.709,42.13],[9.551,41.89],[9.55,41.688],[9.485,41.515],[9.317,41.256],[9.145,41.227],[8.68,41.461],[8.628,41.596],[8.511,41.707],[8.438,41.945]]],[[[-5.186,48.318],[-5.283,48.465],[-5.186,48.605],[-5.036,48.631],[-4.911,48.555],[-4.804,48.694],[-4.607,48.773],[-3.989,48.882],[-3.71,48.867],[-3.544,48.989],[-3.058,49.019],[-2.844,48.888],[-2.667,48.703],[-2.545,48.789],[-2.334,48.847],[-2.175,48.783],[-1.864,48.861],[-1.752,48.831],[-1.718,48.945],[-1.754,49.134],[-1.945,49.306],[-2.091,49.641],[-2.076,49.778],[-2.003,49.858],[-1.594,49.813],[-1.419,49.861],[-1.237,49.844],[-1.096,49.705],[-1.089,49.546],[-0.222,49.442],[-0.068,49.467],[-0.052,49.614],[0.116,49.836],[0.562,50.003],[1.122,50.104],[1.342,50.228],[1.424,50.484],[1.435,50.904],[1.5,50.996],[1.896,51.145],[2.567,51.23],[2.855,50.867],[3.183,50.919],[3.354,50.783],[3.392,50.652],[3.534,50.661],[3.706,50.592],[3.785,50.498],[4.034,50.491],[4.284,50.381],[4.348,50.291],[4.357,50.098],[4.531,50.114],[4.719,50.286],[4.86,50.305],[5.01,50.198],[5.007,49.943],[5.328,49.825],[5.539,49.673],[5.761,49.699],[6.018,49.603],[6.183,49.649],[6.435,49.612],[6.603,49.544],[6.773,49.346],[6.953,49.353],[7.176,49.264],[7.433,49.317],[7.682,49.193],[7.969,49.18],[8.322,49.047],[8.329,48.882],[8.191,48.696],[7.963,48.542],[7.885,48.274],[7.741,48.09],[7.771,47.968],[7.688,47.758],[7.742,47.602],[7.704,47.492],[7.459,47.298],[7.18,47.278],[6.76,46.905],[6.594,46.832],[6.558,46.684],[6.433,46.59],[6.629,46.605],[6.877,46.537],[6.97,46.223],[7.165,45.972],[7.156,45.858],[7.063,45.753],[7.119,45.615],[7.285,45.495],[7.31,45.399],[7.218,45.157],[6.95,45.01],[7.117,44.928],[7.202,44.718],[7.173,44.592],[7.046,44.514],[7.061,44.39],[7.385,44.277],[7.717,44.313],[7.795,44.231],[7.833,44.022],[7.649,43.822],[7.566,43.645],[6.848,43.263],[6.754,43.071],[6.496,43.001],[6.223,42.838],[5.984,42.927],[5.771,42.911],[5.631,43.012],[5.285,43.079],[5.202,43.179],[4.568,43.212],[4.435,43.299],[4.144,43.319],[4.011,43.4],[3.572,43.143],[3.379,43.125],[3.229,43.003],[3.188,42.679],[3.327,42.474],[3.28,42.318],[3.143,42.276],[2.895,42.3],[2.683,42.19],[2.492,42.177],[2.253,42.274],[1.962,42.203],[1.629,42.369],[1.56,42.476],[1.387,42.451],[1.263,42.563],[1.123,42.56],[0.812,42.669],[0.763,42.582],[0.669,42.537],[0.26,42.519],[0.163,42.568],[-0.055,42.536],[-0.329,42.669],[-0.594,42.625],[-0.859,42.793],[-1.255,42.893],[-1.479,42.892],[-1.598,42.974],[-1.637,43.098],[-1.847,43.179],[-1.947,43.338],[-1.9,43.492],[-1.695,43.562],[-1.589,43.716],[-1.403,44.465],[-1.273,45.561],[-1.377,45.635],[-1.383,45.787],[-1.509,45.902],[-1.554,46.066],[-1.688,46.174],[-1.698,46.3],[-1.888,46.377],[-1.977,46.536],[-2.124,46.66],[-2.251,46.549],[-2.48,46.601],[-2.525,46.77],[-2.377,46.882],[-2.444,47.011],[-2.42,47.116],[-2.645,47.191],[-2.704,47.356],[-2.93,47.39],[-2.921,47.269],[-2.985,47.177],[-3.277,47.172],[-3.369,47.242],[-3.411,47.369],[-3.325,47.543],[-3.506,47.565],[-3.596,47.629],[-3.892,47.656],[-3.968,47.707],[-4.213,47.653],[-4.435,47.671],[-4.508,47.745],[-4.522,47.852],[-4.771,47.897],[-4.852,47.957],[-4.872,48.084],[-4.789,48.196],[-4.882,48.248],[-4.932,48.358],[-5.066,48.299],[-5.186,48.318]]],[[[-54.535,2.076],[-54.753,2.267],[-54.754,2.383],[-54.493,2.579],[-54.342,2.853],[-54.355,3.171],[-54.155,3.491],[-54.228,3.668],[-54.475,3.951],[-54.549,4.144],[-54.635,4.923],[-54.583,5.092],[-54.434,5.312],[-54.194,5.508],[-54.039,5.861],[-53.772,5.876],[-53.451,5.716],[-53.234,5.706],[-52.902,5.58],[-51.929,4.811],[-51.807,4.803],[-51.69,4.713],[-51.543,4.414],[-51.499,4.159],[-51.534,4.003],[-51.66,3.884],[-52.203,3.083],[-52.417,2.512],[-52.595,2.257],[-52.933,2.028],[-53.289,2.047],[-53.404,2.121],[-53.549,2.098],[-53.785,2.165],[-54.128,1.961],[-54.535,2.076]]],[[[-56.503,46.941],[-56.534,47.171],[-56.462,47.258],[-56.352,47.291],[-56.254,47.256],[-56.126,47.133],[-56.116,46.963],[-56.006,46.858],[-56.024,46.677],[-56.189,46.603],[-56.459,46.665],[-56.543,46.805],[-56.503,46.941]]],[[[-61.239,14.447],[-61.37,14.877],[-61.23,15.014],[-61.106,15.024],[-60.823,14.916],[-60.736,14.821],[-60.672,14.405],[-60.828,14.262],[-61.122,14.325],[-61.239,14.447]]],[[[-61.946,16.293],[-61.852,16.477],[-61.675,16.501],[-61.604,16.6],[-61.477,16.662],[-61.341,16.612],[-61.172,16.432],[-60.986,16.501],[-60.883,16.453],[-60.84,16.36],[-60.885,16.239],[-61.127,16.102],[-61.044,15.939],[-61.113,15.784],[-61.284,15.724],[-61.434,15.802],[-61.619,15.697],[-61.747,15.75],[-61.886,15.977],[-61.946,16.293]]],[[[-63.173,18.221],[-63.034,18.272],[-62.923,18.238],[-62.862,18.079],[-62.662,17.99],[-62.644,17.888],[-62.688,17.803],[-62.871,17.735],[-63.013,17.884],[-63.24,17.949],[-63.294,18.1],[-63.173,18.221]]]]}}